[
    {
        "restaurant_name": "Topicware",
        "city": "San Diego",
        "state": "California",
        "zipcode": "92196",
        "phone_number": "619-611-5888",
        "rating": 2
    },
    {
        "restaurant_name": "Fivechat",
        "city": "Washington",
        "state": "District of Columbia",
        "zipcode": "20099",
        "phone_number": "202-667-8231",
        "rating": 4
    },
    {
        "restaurant_name": "Photospace",
        "city": "Oklahoma City",
        "state": "Oklahoma",
        "zipcode": "73157",
        "phone_number": "405-291-1198",
        "rating": 5
    },
    {
        "restaurant_name": "Mynte",
        "city": "Harrisburg",
        "state": "Pennsylvania",
        "zipcode": "17121",
        "phone_number": "717-116-4405",
        "rating": 5
    },
    {
        "restaurant_name": "Riffpedia",
        "city": "Montgomery",
        "state": "Alabama",
        "zipcode": "36125",
        "phone_number": "334-366-7711",
        "rating": 4
    },
    {
        "restaurant_name": "Brightbean",
        "city": "London",
        "state": "Kentucky",
        "zipcode": "40745",
        "phone_number": "606-824-0184",
        "rating": 4
    },
    {
        "restaurant_name": "Photobean",
        "city": "Norman",
        "state": "Oklahoma",
        "zipcode": "73071",
        "phone_number": "405-152-1246",
        "rating": 5
    },
    {
        "restaurant_name": "Brainlounge",
        "city": "Roanoke",
        "state": "Virginia",
        "zipcode": "24020",
        "phone_number": "540-146-4025",
        "rating": 5
    },
    {
        "restaurant_name": "Katz",
        "city": "Jackson",
        "state": "Mississippi",
        "zipcode": "39216",
        "phone_number": "601-156-6872",
        "rating": 4
    },
    {
        "restaurant_name": "Livepath",
        "city": "Roanoke",
        "state": "Virginia",
        "zipcode": "24009",
        "phone_number": "540-954-8888",
        "rating": 2
    },
    {
        "restaurant_name": "Lazz",
        "city": "Tacoma",
        "state": "Washington",
        "zipcode": "98464",
        "phone_number": "253-860-2537",
        "rating": 2
    },
    {
        "restaurant_name": "Yodel",
        "city": "Elmira",
        "state": "New York",
        "zipcode": "14905",
        "phone_number": "607-996-6015",
        "rating": 1
    },
    {
        "restaurant_name": "Browsetype",
        "city": "Boulder",
        "state": "Colorado",
        "zipcode": "80328",
        "phone_number": "303-467-2908",
        "rating": 4
    },
    {
        "restaurant_name": "Skimia",
        "city": "Modesto",
        "state": "California",
        "zipcode": "95354",
        "phone_number": "209-668-1333",
        "rating": 4
    },
    {
        "restaurant_name": "Jaxspan",
        "city": "Littleton",
        "state": "Colorado",
        "zipcode": "80127",
        "phone_number": "303-304-8938",
        "rating": 1
    },
    {
        "restaurant_name": "Bubblebox",
        "city": "New York City",
        "state": "New York",
        "zipcode": "10039",
        "phone_number": "646-169-4572",
        "rating": 4
    },
    {
        "restaurant_name": "Thoughtsphere",
        "city": "Mesa",
        "state": "Arizona",
        "zipcode": "85210",
        "phone_number": "928-622-3814",
        "rating": 3
    },
    {
        "restaurant_name": "Edgetag",
        "city": "Madison",
        "state": "Wisconsin",
        "zipcode": "53790",
        "phone_number": "608-999-3897",
        "rating": 2
    },
    {
        "restaurant_name": "Demizz",
        "city": "New Orleans",
        "state": "Louisiana",
        "zipcode": "70116",
        "phone_number": "504-110-7033",
        "rating": 1
    },
    {
        "restaurant_name": "Realfire",
        "city": "Pittsburgh",
        "state": "Pennsylvania",
        "zipcode": "15225",
        "phone_number": "412-157-6362",
        "rating": 1
    },
    {
        "restaurant_name": "Kare",
        "city": "Philadelphia",
        "state": "Pennsylvania",
        "zipcode": "19141",
        "phone_number": "215-802-6304",
        "rating": 2
    },
    {
        "restaurant_name": "Gabvine",
        "city": "Grand Forks",
        "state": "North Dakota",
        "zipcode": "58207",
        "phone_number": "701-581-3437",
        "rating": 4
    },
    {
        "restaurant_name": "Twiyo",
        "city": "Chicago",
        "state": "Illinois",
        "zipcode": "60609",
        "phone_number": "312-549-8236",
        "rating": 3
    },
    {
        "restaurant_name": "Wikivu",
        "city": "Jackson",
        "state": "Mississippi",
        "zipcode": "39282",
        "phone_number": "601-542-3290",
        "rating": 2
    },
    {
        "restaurant_name": "Eazzy",
        "city": "Washington",
        "state": "District of Columbia",
        "zipcode": "20016",
        "phone_number": "202-919-9460",
        "rating": 3
    },
    {
        "restaurant_name": "Demimbu",
        "city": "Peoria",
        "state": "Illinois",
        "zipcode": "61656",
        "phone_number": "309-820-4484",
        "rating": 5
    },
    {
        "restaurant_name": "Fiveclub",
        "city": "Carson City",
        "state": "Nevada",
        "zipcode": "89714",
        "phone_number": "775-593-0565",
        "rating": 2
    },
    {
        "restaurant_name": "Zoomzone",
        "city": "Evansville",
        "state": "Indiana",
        "zipcode": "47705",
        "phone_number": "812-179-8899",
        "rating": 3
    },
    {
        "restaurant_name": "Aimbo",
        "city": "Birmingham",
        "state": "Alabama",
        "zipcode": "35285",
        "phone_number": "205-597-0388",
        "rating": 2
    },
    {
        "restaurant_name": "BlogXS",
        "city": "Chula Vista",
        "state": "California",
        "zipcode": "91913",
        "phone_number": "619-231-6791",
        "rating": 1
    },
    {
        "restaurant_name": "Skipfire",
        "city": "Bakersfield",
        "state": "California",
        "zipcode": "93311",
        "phone_number": "661-759-4248",
        "rating": 3
    },
    {
        "restaurant_name": "Brainlounge",
        "city": "New York City",
        "state": "New York",
        "zipcode": "10155",
        "phone_number": "917-554-1202",
        "rating": 3
    },
    {
        "restaurant_name": "Youfeed",
        "city": "Providence",
        "state": "Rhode Island",
        "zipcode": "02905",
        "phone_number": "401-236-4402",
        "rating": 5
    },
    {
        "restaurant_name": "Trudoo",
        "city": "Columbia",
        "state": "South Carolina",
        "zipcode": "29203",
        "phone_number": "803-892-1744",
        "rating": 4
    },
    {
        "restaurant_name": "Kimia",
        "city": "Glendale",
        "state": "California",
        "zipcode": "91205",
        "phone_number": "323-410-8760",
        "rating": 5
    },
    {
        "restaurant_name": "Mycat",
        "city": "Fort Worth",
        "state": "Texas",
        "zipcode": "76147",
        "phone_number": "817-891-1657",
        "rating": 4
    },
    {
        "restaurant_name": "Wikibox",
        "city": "Topeka",
        "state": "Kansas",
        "zipcode": "66606",
        "phone_number": "785-685-9812",
        "rating": 2
    },
    {
        "restaurant_name": "Skimia",
        "city": "West Palm Beach",
        "state": "Florida",
        "zipcode": "33405",
        "phone_number": "772-452-4855",
        "rating": 4
    },
    {
        "restaurant_name": "Trilith",
        "city": "Cleveland",
        "state": "Ohio",
        "zipcode": "44125",
        "phone_number": "440-360-6868",
        "rating": 1
    },
    {
        "restaurant_name": "Voonyx",
        "city": "Minneapolis",
        "state": "Minnesota",
        "zipcode": "55458",
        "phone_number": "612-438-5608",
        "rating": 3
    },
    {
        "restaurant_name": "Photobug",
        "city": "San Bernardino",
        "state": "California",
        "zipcode": "92415",
        "phone_number": "760-772-4695",
        "rating": 1
    },
    {
        "restaurant_name": "Realpoint",
        "city": "Cincinnati",
        "state": "Ohio",
        "zipcode": "45233",
        "phone_number": "513-906-7775",
        "rating": 1
    },
    {
        "restaurant_name": "Oloo",
        "city": "Washington",
        "state": "District of Columbia",
        "zipcode": "20409",
        "phone_number": "202-251-5462",
        "rating": 2
    },
    {
        "restaurant_name": "Oloo",
        "city": "Columbus",
        "state": "Georgia",
        "zipcode": "31914",
        "phone_number": "706-852-3820",
        "rating": 2
    },
    {
        "restaurant_name": "Zoovu",
        "city": "Milwaukee",
        "state": "Wisconsin",
        "zipcode": "53210",
        "phone_number": "262-855-8557",
        "rating": 4
    },
    {
        "restaurant_name": "Yakijo",
        "city": "Washington",
        "state": "District of Columbia",
        "zipcode": "20430",
        "phone_number": "202-933-9196",
        "rating": 4
    },
    {
        "restaurant_name": "Wikizz",
        "city": "El Paso",
        "state": "Texas",
        "zipcode": "88569",
        "phone_number": "915-760-9219",
        "rating": 2
    },
    {
        "restaurant_name": "Quatz",
        "city": "Reno",
        "state": "Nevada",
        "zipcode": "89519",
        "phone_number": "775-476-0922",
        "rating": 2
    },
    {
        "restaurant_name": "Katz",
        "city": "Dallas",
        "state": "Texas",
        "zipcode": "75372",
        "phone_number": "214-228-0364",
        "rating": 2
    },
    {
        "restaurant_name": "Quaxo",
        "city": "Washington",
        "state": "District of Columbia",
        "zipcode": "20392",
        "phone_number": "202-477-6918",
        "rating": 4
    },
    {
        "restaurant_name": "Chatterpoint",
        "city": "Homestead",
        "state": "Florida",
        "zipcode": "33034",
        "phone_number": "305-549-2679",
        "rating": 1
    },
    {
        "restaurant_name": "Photospace",
        "city": "Louisville",
        "state": "Kentucky",
        "zipcode": "40205",
        "phone_number": "502-809-6656",
        "rating": 4
    },
    {
        "restaurant_name": "Oloo",
        "city": "Bronx",
        "state": "New York",
        "zipcode": "10454",
        "phone_number": "718-238-9653",
        "rating": 3
    },
    {
        "restaurant_name": "Quimba",
        "city": "North Las Vegas",
        "state": "Nevada",
        "zipcode": "89036",
        "phone_number": "702-384-8103",
        "rating": 5
    },
    {
        "restaurant_name": "Fadeo",
        "city": "North Port",
        "state": "Florida",
        "zipcode": "34290",
        "phone_number": "941-113-9934",
        "rating": 3
    },
    {
        "restaurant_name": "Yakitri",
        "city": "Oklahoma City",
        "state": "Oklahoma",
        "zipcode": "73114",
        "phone_number": "405-405-7534",
        "rating": 4
    },
    {
        "restaurant_name": "Gigazoom",
        "city": "Washington",
        "state": "District of Columbia",
        "zipcode": "20051",
        "phone_number": "202-492-6326",
        "rating": 1
    },
    {
        "restaurant_name": "Babbleset",
        "city": "Tampa",
        "state": "Florida",
        "zipcode": "33686",
        "phone_number": "813-230-2076",
        "rating": 2
    },
    {
        "restaurant_name": "Yacero",
        "city": "Henderson",
        "state": "Nevada",
        "zipcode": "89012",
        "phone_number": "702-617-8218",
        "rating": 2
    },
    {
        "restaurant_name": "Cogilith",
        "city": "Waterbury",
        "state": "Connecticut",
        "zipcode": "06705",
        "phone_number": "203-151-3525",
        "rating": 3
    },
    {
        "restaurant_name": "Rhybox",
        "city": "Kent",
        "state": "Washington",
        "zipcode": "98042",
        "phone_number": "425-579-6537",
        "rating": 1
    },
    {
        "restaurant_name": "Fanoodle",
        "city": "Buffalo",
        "state": "New York",
        "zipcode": "14220",
        "phone_number": "716-899-2237",
        "rating": 4
    },
    {
        "restaurant_name": "Gabtune",
        "city": "Greensboro",
        "state": "North Carolina",
        "zipcode": "27499",
        "phone_number": "336-348-3900",
        "rating": 2
    },
    {
        "restaurant_name": "Skinte",
        "city": "Philadelphia",
        "state": "Pennsylvania",
        "zipcode": "19120",
        "phone_number": "610-830-7963",
        "rating": 4
    },
    {
        "restaurant_name": "Twimm",
        "city": "Des Moines",
        "state": "Iowa",
        "zipcode": "50369",
        "phone_number": "515-346-2011",
        "rating": 4
    },
    {
        "restaurant_name": "Tazzy",
        "city": "Youngstown",
        "state": "Ohio",
        "zipcode": "44555",
        "phone_number": "330-231-9001",
        "rating": 2
    },
    {
        "restaurant_name": "Photofeed",
        "city": "Los Angeles",
        "state": "California",
        "zipcode": "90040",
        "phone_number": "760-751-4031",
        "rating": 3
    },
    {
        "restaurant_name": "Oyoba",
        "city": "Tallahassee",
        "state": "Florida",
        "zipcode": "32304",
        "phone_number": "850-698-1404",
        "rating": 2
    },
    {
        "restaurant_name": "Quamba",
        "city": "Washington",
        "state": "District of Columbia",
        "zipcode": "20436",
        "phone_number": "202-696-6296",
        "rating": 4
    },
    {
        "restaurant_name": "Riffpath",
        "city": "Young America",
        "state": "Minnesota",
        "zipcode": "55564",
        "phone_number": "952-878-2009",
        "rating": 2
    },
    {
        "restaurant_name": "Vimbo",
        "city": "Jamaica",
        "state": "New York",
        "zipcode": "11470",
        "phone_number": "917-127-6887",
        "rating": 1
    },
    {
        "restaurant_name": "Voonix",
        "city": "Battle Creek",
        "state": "Michigan",
        "zipcode": "49018",
        "phone_number": "269-308-4081",
        "rating": 3
    },
    {
        "restaurant_name": "Oba",
        "city": "Salt Lake City",
        "state": "Utah",
        "zipcode": "84105",
        "phone_number": "801-576-0723",
        "rating": 4
    },
    {
        "restaurant_name": "Bubbletube",
        "city": "Peoria",
        "state": "Illinois",
        "zipcode": "61651",
        "phone_number": "309-663-7204",
        "rating": 5
    },
    {
        "restaurant_name": "Aivee",
        "city": "Sacramento",
        "state": "California",
        "zipcode": "95833",
        "phone_number": "530-931-8517",
        "rating": 5
    },
    {
        "restaurant_name": "Oba",
        "city": "Frankfort",
        "state": "Kentucky",
        "zipcode": "40618",
        "phone_number": "502-753-2804",
        "rating": 3
    },
    {
        "restaurant_name": "Lazzy",
        "city": "Jacksonville",
        "state": "Florida",
        "zipcode": "32255",
        "phone_number": "904-731-3968",
        "rating": 5
    },
    {
        "restaurant_name": "Jetpulse",
        "city": "Philadelphia",
        "state": "Pennsylvania",
        "zipcode": "19196",
        "phone_number": "215-969-9401",
        "rating": 5
    },
    {
        "restaurant_name": "Devcast",
        "city": "Prescott",
        "state": "Arizona",
        "zipcode": "86305",
        "phone_number": "520-782-1752",
        "rating": 5
    },
    {
        "restaurant_name": "Linkbuzz",
        "city": "Trenton",
        "state": "New Jersey",
        "zipcode": "08619",
        "phone_number": "609-644-0013",
        "rating": 2
    },
    {
        "restaurant_name": "Skyba",
        "city": "Washington",
        "state": "District of Columbia",
        "zipcode": "20557",
        "phone_number": "202-227-7415",
        "rating": 4
    },
    {
        "restaurant_name": "Quamba",
        "city": "Saint Louis",
        "state": "Missouri",
        "zipcode": "63196",
        "phone_number": "314-764-3688",
        "rating": 5
    },
    {
        "restaurant_name": "Dynabox",
        "city": "Atlanta",
        "state": "Georgia",
        "zipcode": "31119",
        "phone_number": "770-526-1882",
        "rating": 5
    },
    {
        "restaurant_name": "Flipopia",
        "city": "Evansville",
        "state": "Indiana",
        "zipcode": "47737",
        "phone_number": "812-423-7384",
        "rating": 5
    },
    {
        "restaurant_name": "Browsedrive",
        "city": "Montgomery",
        "state": "Alabama",
        "zipcode": "36119",
        "phone_number": "334-288-0353",
        "rating": 1
    },
    {
        "restaurant_name": "Bubblemix",
        "city": "Albuquerque",
        "state": "New Mexico",
        "zipcode": "87110",
        "phone_number": "505-186-8793",
        "rating": 5
    },
    {
        "restaurant_name": "Roomm",
        "city": "Minneapolis",
        "state": "Minnesota",
        "zipcode": "55428",
        "phone_number": "763-630-2974",
        "rating": 4
    },
    {
        "restaurant_name": "Photobean",
        "city": "New Haven",
        "state": "Connecticut",
        "zipcode": "06510",
        "phone_number": "203-385-3825",
        "rating": 4
    },
    {
        "restaurant_name": "Twitterworks",
        "city": "New Bedford",
        "state": "Massachusetts",
        "zipcode": "02745",
        "phone_number": "508-764-8154",
        "rating": 2
    },
    {
        "restaurant_name": "Twitternation",
        "city": "Brooklyn",
        "state": "New York",
        "zipcode": "11215",
        "phone_number": "718-742-4200",
        "rating": 1
    },
    {
        "restaurant_name": "Realbuzz",
        "city": "Denver",
        "state": "Colorado",
        "zipcode": "80291",
        "phone_number": "303-859-8289",
        "rating": 4
    },
    {
        "restaurant_name": "Feedfire",
        "city": "Washington",
        "state": "District of Columbia",
        "zipcode": "20337",
        "phone_number": "202-971-2296",
        "rating": 5
    },
    {
        "restaurant_name": "BlogXS",
        "city": "Milwaukee",
        "state": "Wisconsin",
        "zipcode": "53225",
        "phone_number": "414-395-3474",
        "rating": 3
    },
    {
        "restaurant_name": "Rhyzio",
        "city": "Knoxville",
        "state": "Tennessee",
        "zipcode": "37931",
        "phone_number": "865-718-7824",
        "rating": 1
    },
    {
        "restaurant_name": "Youspan",
        "city": "Fort Wayne",
        "state": "Indiana",
        "zipcode": "46825",
        "phone_number": "260-515-2601",
        "rating": 5
    },
    {
        "restaurant_name": "Skimia",
        "city": "Athens",
        "state": "Georgia",
        "zipcode": "30605",
        "phone_number": "706-672-0333",
        "rating": 4
    },
    {
        "restaurant_name": "Eimbee",
        "city": "Sacramento",
        "state": "California",
        "zipcode": "95838",
        "phone_number": "916-767-5013",
        "rating": 5
    },
    {
        "restaurant_name": "Topiclounge",
        "city": "Vero Beach",
        "state": "Florida",
        "zipcode": "32964",
        "phone_number": "772-556-1707",
        "rating": 5
    },
    {
        "restaurant_name": "Trudoo",
        "city": "Las Vegas",
        "state": "Nevada",
        "zipcode": "89110",
        "phone_number": "702-460-0131",
        "rating": 3
    },
    {
        "restaurant_name": "Rhyzio",
        "city": "Maple Plain",
        "state": "Minnesota",
        "zipcode": "55572",
        "phone_number": "763-608-2995",
        "rating": 4
    },
    {
        "restaurant_name": "Linkbridge",
        "city": "Oakland",
        "state": "California",
        "zipcode": "94622",
        "phone_number": "510-688-6162",
        "rating": 1
    },
    {
        "restaurant_name": "Jetpulse",
        "city": "Tuscaloosa",
        "state": "Alabama",
        "zipcode": "35405",
        "phone_number": "205-398-5334",
        "rating": 5
    },
    {
        "restaurant_name": "Mynte",
        "city": "Savannah",
        "state": "Georgia",
        "zipcode": "31422",
        "phone_number": "912-421-8991",
        "rating": 5
    },
    {
        "restaurant_name": "Browsezoom",
        "city": "Miami",
        "state": "Florida",
        "zipcode": "33147",
        "phone_number": "786-991-6521",
        "rating": 5
    },
    {
        "restaurant_name": "Divanoodle",
        "city": "Charlotte",
        "state": "North Carolina",
        "zipcode": "28247",
        "phone_number": "704-717-4807",
        "rating": 4
    },
    {
        "restaurant_name": "Gabtype",
        "city": "Columbus",
        "state": "Ohio",
        "zipcode": "43240",
        "phone_number": "614-288-2192",
        "rating": 3
    },
    {
        "restaurant_name": "Camimbo",
        "city": "Irvine",
        "state": "California",
        "zipcode": "92710",
        "phone_number": "714-587-6544",
        "rating": 5
    },
    {
        "restaurant_name": "Dabjam",
        "city": "Fort Worth",
        "state": "Texas",
        "zipcode": "76198",
        "phone_number": "682-217-9296",
        "rating": 2
    },
    {
        "restaurant_name": "Bluezoom",
        "city": "Mount Vernon",
        "state": "New York",
        "zipcode": "10557",
        "phone_number": "914-671-9625",
        "rating": 3
    },
    {
        "restaurant_name": "Kazio",
        "city": "San Diego",
        "state": "California",
        "zipcode": "92170",
        "phone_number": "619-899-3676",
        "rating": 1
    },
    {
        "restaurant_name": "Youspan",
        "city": "Roanoke",
        "state": "Virginia",
        "zipcode": "24048",
        "phone_number": "540-192-5215",
        "rating": 2
    },
    {
        "restaurant_name": "Yodel",
        "city": "Portland",
        "state": "Oregon",
        "zipcode": "97271",
        "phone_number": "971-193-8115",
        "rating": 2
    },
    {
        "restaurant_name": "Meedoo",
        "city": "Buffalo",
        "state": "New York",
        "zipcode": "14215",
        "phone_number": "716-117-2380",
        "rating": 2
    },
    {
        "restaurant_name": "Flashpoint",
        "city": "Jackson",
        "state": "Mississippi",
        "zipcode": "39210",
        "phone_number": "601-190-1791",
        "rating": 3
    },
    {
        "restaurant_name": "Yambee",
        "city": "Palatine",
        "state": "Illinois",
        "zipcode": "60078",
        "phone_number": "847-121-8635",
        "rating": 3
    },
    {
        "restaurant_name": "Topiczoom",
        "city": "Las Vegas",
        "state": "Nevada",
        "zipcode": "89193",
        "phone_number": "702-128-0242",
        "rating": 5
    },
    {
        "restaurant_name": "Demizz",
        "city": "Aurora",
        "state": "Colorado",
        "zipcode": "80044",
        "phone_number": "303-388-3022",
        "rating": 1
    },
    {
        "restaurant_name": "Teklist",
        "city": "Corpus Christi",
        "state": "Texas",
        "zipcode": "78410",
        "phone_number": "361-652-1397",
        "rating": 1
    },
    {
        "restaurant_name": "Meezzy",
        "city": "Minneapolis",
        "state": "Minnesota",
        "zipcode": "55417",
        "phone_number": "612-184-2314",
        "rating": 5
    },
    {
        "restaurant_name": "Dabfeed",
        "city": "Billings",
        "state": "Montana",
        "zipcode": "59112",
        "phone_number": "406-107-3439",
        "rating": 2
    },
    {
        "restaurant_name": "Wikivu",
        "city": "New York City",
        "state": "New York",
        "zipcode": "10029",
        "phone_number": "646-287-8323",
        "rating": 3
    },
    {
        "restaurant_name": "Oyondu",
        "city": "Jersey City",
        "state": "New Jersey",
        "zipcode": "07305",
        "phone_number": "201-578-2886",
        "rating": 2
    },
    {
        "restaurant_name": "Photojam",
        "city": "Fayetteville",
        "state": "North Carolina",
        "zipcode": "28314",
        "phone_number": "910-654-6270",
        "rating": 3
    },
    {
        "restaurant_name": "Gigazoom",
        "city": "Dayton",
        "state": "Ohio",
        "zipcode": "45440",
        "phone_number": "937-538-8182",
        "rating": 2
    },
    {
        "restaurant_name": "Aimbu",
        "city": "Indianapolis",
        "state": "Indiana",
        "zipcode": "46221",
        "phone_number": "317-722-6473",
        "rating": 3
    },
    {
        "restaurant_name": "Quamba",
        "city": "El Paso",
        "state": "Texas",
        "zipcode": "88530",
        "phone_number": "915-713-2081",
        "rating": 3
    },
    {
        "restaurant_name": "Kazu",
        "city": "Phoenix",
        "state": "Arizona",
        "zipcode": "85045",
        "phone_number": "602-915-5662",
        "rating": 3
    },
    {
        "restaurant_name": "Tanoodle",
        "city": "Stamford",
        "state": "Connecticut",
        "zipcode": "06905",
        "phone_number": "203-563-5767",
        "rating": 1
    },
    {
        "restaurant_name": "Livefish",
        "city": "Houston",
        "state": "Texas",
        "zipcode": "77228",
        "phone_number": "713-467-3559",
        "rating": 1
    },
    {
        "restaurant_name": "Zoozzy",
        "city": "Scottsdale",
        "state": "Arizona",
        "zipcode": "85260",
        "phone_number": "480-451-9443",
        "rating": 2
    },
    {
        "restaurant_name": "LiveZ",
        "city": "Kalamazoo",
        "state": "Michigan",
        "zipcode": "49006",
        "phone_number": "269-214-1215",
        "rating": 4
    },
    {
        "restaurant_name": "Photobug",
        "city": "Omaha",
        "state": "Nebraska",
        "zipcode": "68197",
        "phone_number": "402-570-4859",
        "rating": 4
    },
    {
        "restaurant_name": "Izio",
        "city": "New York City",
        "state": "New York",
        "zipcode": "10175",
        "phone_number": "646-927-3313",
        "rating": 5
    },
    {
        "restaurant_name": "Chatterpoint",
        "city": "Irvine",
        "state": "California",
        "zipcode": "92710",
        "phone_number": "714-823-8628",
        "rating": 2
    },
    {
        "restaurant_name": "Aibox",
        "city": "Van Nuys",
        "state": "California",
        "zipcode": "91406",
        "phone_number": "323-241-1374",
        "rating": 1
    },
    {
        "restaurant_name": "Quaxo",
        "city": "Kansas City",
        "state": "Missouri",
        "zipcode": "64193",
        "phone_number": "816-836-4963",
        "rating": 4
    },
    {
        "restaurant_name": "Roodel",
        "city": "Greensboro",
        "state": "North Carolina",
        "zipcode": "27409",
        "phone_number": "336-452-8604",
        "rating": 4
    },
    {
        "restaurant_name": "Vipe",
        "city": "Miami",
        "state": "Florida",
        "zipcode": "33233",
        "phone_number": "786-745-9790",
        "rating": 1
    },
    {
        "restaurant_name": "Zoozzy",
        "city": "Atlanta",
        "state": "Georgia",
        "zipcode": "30301",
        "phone_number": "770-492-9187",
        "rating": 3
    },
    {
        "restaurant_name": "Oyonder",
        "city": "Panama City",
        "state": "Florida",
        "zipcode": "32405",
        "phone_number": "850-846-2322",
        "rating": 5
    },
    {
        "restaurant_name": "Meedoo",
        "city": "Norwalk",
        "state": "Connecticut",
        "zipcode": "06859",
        "phone_number": "203-700-1982",
        "rating": 5
    },
    {
        "restaurant_name": "Edgeify",
        "city": "Henderson",
        "state": "Nevada",
        "zipcode": "89074",
        "phone_number": "702-766-1060",
        "rating": 2
    },
    {
        "restaurant_name": "Linkbridge",
        "city": "Inglewood",
        "state": "California",
        "zipcode": "90310",
        "phone_number": "310-598-2696",
        "rating": 1
    },
    {
        "restaurant_name": "Roodel",
        "city": "Orange",
        "state": "California",
        "zipcode": "92862",
        "phone_number": "714-176-6083",
        "rating": 2
    },
    {
        "restaurant_name": "Dablist",
        "city": "Norcross",
        "state": "Georgia",
        "zipcode": "30092",
        "phone_number": "770-977-8279",
        "rating": 2
    },
    {
        "restaurant_name": "Oodoo",
        "city": "San Diego",
        "state": "California",
        "zipcode": "92153",
        "phone_number": "619-861-4339",
        "rating": 5
    },
    {
        "restaurant_name": "Yotz",
        "city": "San Francisco",
        "state": "California",
        "zipcode": "94142",
        "phone_number": "415-227-6187",
        "rating": 2
    },
    {
        "restaurant_name": "Mydo",
        "city": "Springfield",
        "state": "Illinois",
        "zipcode": "62794",
        "phone_number": "217-398-8470",
        "rating": 3
    },
    {
        "restaurant_name": "Lazz",
        "city": "Bryan",
        "state": "Texas",
        "zipcode": "77806",
        "phone_number": "979-711-0034",
        "rating": 2
    },
    {
        "restaurant_name": "Thoughtbridge",
        "city": "Springfield",
        "state": "Illinois",
        "zipcode": "62711",
        "phone_number": "217-504-9620",
        "rating": 5
    },
    {
        "restaurant_name": "Gigazoom",
        "city": "El Paso",
        "state": "Texas",
        "zipcode": "79994",
        "phone_number": "915-237-7193",
        "rating": 4
    },
    {
        "restaurant_name": "Zooxo",
        "city": "Waterbury",
        "state": "Connecticut",
        "zipcode": "06705",
        "phone_number": "203-602-6333",
        "rating": 3
    },
    {
        "restaurant_name": "Jamia",
        "city": "Des Moines",
        "state": "Iowa",
        "zipcode": "50320",
        "phone_number": "515-548-3790",
        "rating": 3
    },
    {
        "restaurant_name": "Fivechat",
        "city": "Las Vegas",
        "state": "Nevada",
        "zipcode": "89178",
        "phone_number": "702-766-5725",
        "rating": 1
    },
    {
        "restaurant_name": "Realbridge",
        "city": "Alexandria",
        "state": "Virginia",
        "zipcode": "22301",
        "phone_number": "703-844-8995",
        "rating": 1
    },
    {
        "restaurant_name": "Browseblab",
        "city": "San Francisco",
        "state": "California",
        "zipcode": "94105",
        "phone_number": "510-746-6027",
        "rating": 3
    },
    {
        "restaurant_name": "Feedspan",
        "city": "Reston",
        "state": "Virginia",
        "zipcode": "20195",
        "phone_number": "703-773-3525",
        "rating": 2
    },
    {
        "restaurant_name": "Blognation",
        "city": "Fort Wayne",
        "state": "Indiana",
        "zipcode": "46896",
        "phone_number": "260-418-2095",
        "rating": 4
    },
    {
        "restaurant_name": "Einti",
        "city": "Milwaukee",
        "state": "Wisconsin",
        "zipcode": "53205",
        "phone_number": "920-657-4788",
        "rating": 5
    },
    {
        "restaurant_name": "Youtags",
        "city": "Phoenix",
        "state": "Arizona",
        "zipcode": "85077",
        "phone_number": "602-187-7278",
        "rating": 4
    },
    {
        "restaurant_name": "Feednation",
        "city": "Santa Clara",
        "state": "California",
        "zipcode": "95054",
        "phone_number": "949-350-0124",
        "rating": 3
    },
    {
        "restaurant_name": "Feedfish",
        "city": "Anderson",
        "state": "South Carolina",
        "zipcode": "29625",
        "phone_number": "864-519-4326",
        "rating": 2
    },
    {
        "restaurant_name": "Oodoo",
        "city": "Oklahoma City",
        "state": "Oklahoma",
        "zipcode": "73197",
        "phone_number": "405-610-3807",
        "rating": 5
    },
    {
        "restaurant_name": "Babbleopia",
        "city": "Montgomery",
        "state": "Alabama",
        "zipcode": "36114",
        "phone_number": "334-995-0418",
        "rating": 4
    },
    {
        "restaurant_name": "Lazzy",
        "city": "Joliet",
        "state": "Illinois",
        "zipcode": "60435",
        "phone_number": "815-193-1196",
        "rating": 5
    },
    {
        "restaurant_name": "Flashset",
        "city": "Houston",
        "state": "Texas",
        "zipcode": "77240",
        "phone_number": "713-302-7494",
        "rating": 1
    },
    {
        "restaurant_name": "Devify",
        "city": "Albuquerque",
        "state": "New Mexico",
        "zipcode": "87180",
        "phone_number": "505-129-5579",
        "rating": 3
    },
    {
        "restaurant_name": "Blogtags",
        "city": "Boston",
        "state": "Massachusetts",
        "zipcode": "02124",
        "phone_number": "617-538-1672",
        "rating": 5
    },
    {
        "restaurant_name": "Zoomcast",
        "city": "Duluth",
        "state": "Georgia",
        "zipcode": "30096",
        "phone_number": "678-546-4936",
        "rating": 5
    },
    {
        "restaurant_name": "Zazio",
        "city": "Oklahoma City",
        "state": "Oklahoma",
        "zipcode": "73190",
        "phone_number": "405-274-9482",
        "rating": 3
    },
    {
        "restaurant_name": "Mydeo",
        "city": "Shawnee Mission",
        "state": "Kansas",
        "zipcode": "66286",
        "phone_number": "913-607-8551",
        "rating": 5
    },
    {
        "restaurant_name": "Quire",
        "city": "Fairfield",
        "state": "Connecticut",
        "zipcode": "06825",
        "phone_number": "203-292-1203",
        "rating": 3
    },
    {
        "restaurant_name": "Ntag",
        "city": "Charleston",
        "state": "West Virginia",
        "zipcode": "25336",
        "phone_number": "304-596-3883",
        "rating": 1
    },
    {
        "restaurant_name": "Brightdog",
        "city": "San Francisco",
        "state": "California",
        "zipcode": "94105",
        "phone_number": "510-527-1515",
        "rating": 2
    },
    {
        "restaurant_name": "Rhybox",
        "city": "Huntington",
        "state": "West Virginia",
        "zipcode": "25721",
        "phone_number": "304-221-8979",
        "rating": 3
    },
    {
        "restaurant_name": "Mita",
        "city": "Montgomery",
        "state": "Alabama",
        "zipcode": "36125",
        "phone_number": "334-836-9355",
        "rating": 3
    },
    {
        "restaurant_name": "Twimbo",
        "city": "Naples",
        "state": "Florida",
        "zipcode": "33961",
        "phone_number": "305-151-9042",
        "rating": 3
    },
    {
        "restaurant_name": "Chatterbridge",
        "city": "Sacramento",
        "state": "California",
        "zipcode": "95813",
        "phone_number": "916-286-8766",
        "rating": 1
    },
    {
        "restaurant_name": "Centizu",
        "city": "Orlando",
        "state": "Florida",
        "zipcode": "32859",
        "phone_number": "407-374-6704",
        "rating": 2
    },
    {
        "restaurant_name": "Ainyx",
        "city": "Homestead",
        "state": "Florida",
        "zipcode": "33034",
        "phone_number": "305-124-6274",
        "rating": 1
    },
    {
        "restaurant_name": "Trilia",
        "city": "Evansville",
        "state": "Indiana",
        "zipcode": "47719",
        "phone_number": "812-502-1867",
        "rating": 1
    },
    {
        "restaurant_name": "Skyble",
        "city": "Los Angeles",
        "state": "California",
        "zipcode": "90040",
        "phone_number": "310-470-8174",
        "rating": 1
    },
    {
        "restaurant_name": "Divavu",
        "city": "Washington",
        "state": "District of Columbia",
        "zipcode": "20540",
        "phone_number": "202-497-2395",
        "rating": 4
    },
    {
        "restaurant_name": "Kanoodle",
        "city": "Washington",
        "state": "District of Columbia",
        "zipcode": "20260",
        "phone_number": "202-303-2185",
        "rating": 3
    },
    {
        "restaurant_name": "Jabberstorm",
        "city": "Mountain View",
        "state": "California",
        "zipcode": "94042",
        "phone_number": "650-261-4229",
        "rating": 2
    },
    {
        "restaurant_name": "Browseblab",
        "city": "Denver",
        "state": "Colorado",
        "zipcode": "80243",
        "phone_number": "303-901-9970",
        "rating": 5
    },
    {
        "restaurant_name": "Avamba",
        "city": "Pittsburgh",
        "state": "Pennsylvania",
        "zipcode": "15220",
        "phone_number": "412-380-1629",
        "rating": 3
    },
    {
        "restaurant_name": "Lajo",
        "city": "Baltimore",
        "state": "Maryland",
        "zipcode": "21216",
        "phone_number": "410-897-1600",
        "rating": 1
    },
    {
        "restaurant_name": "Fiveclub",
        "city": "Portsmouth",
        "state": "New Hampshire",
        "zipcode": "00214",
        "phone_number": "603-760-9348",
        "rating": 3
    },
    {
        "restaurant_name": "Centimia",
        "city": "Austin",
        "state": "Texas",
        "zipcode": "78764",
        "phone_number": "512-887-9144",
        "rating": 3
    },
    {
        "restaurant_name": "Photobean",
        "city": "San Diego",
        "state": "California",
        "zipcode": "92145",
        "phone_number": "858-303-8189",
        "rating": 3
    },
    {
        "restaurant_name": "Jabberbean",
        "city": "Mobile",
        "state": "Alabama",
        "zipcode": "36689",
        "phone_number": "251-388-9709",
        "rating": 2
    },
    {
        "restaurant_name": "Vidoo",
        "city": "Trenton",
        "state": "New Jersey",
        "zipcode": "08638",
        "phone_number": "609-562-4760",
        "rating": 3
    },
    {
        "restaurant_name": "Meejo",
        "city": "Bryan",
        "state": "Texas",
        "zipcode": "77806",
        "phone_number": "979-518-9862",
        "rating": 5
    },
    {
        "restaurant_name": "Tagfeed",
        "city": "Lafayette",
        "state": "Louisiana",
        "zipcode": "70593",
        "phone_number": "337-309-5902",
        "rating": 5
    },
    {
        "restaurant_name": "Quinu",
        "city": "Oakland",
        "state": "California",
        "zipcode": "94605",
        "phone_number": "510-597-4057",
        "rating": 5
    },
    {
        "restaurant_name": "Ooba",
        "city": "Arvada",
        "state": "Colorado",
        "zipcode": "80005",
        "phone_number": "303-979-6605",
        "rating": 2
    },
    {
        "restaurant_name": "Gabtune",
        "city": "El Paso",
        "state": "Texas",
        "zipcode": "79989",
        "phone_number": "915-388-4308",
        "rating": 2
    },
    {
        "restaurant_name": "Bubblemix",
        "city": "Des Moines",
        "state": "Iowa",
        "zipcode": "50330",
        "phone_number": "515-158-4986",
        "rating": 1
    },
    {
        "restaurant_name": "Realcube",
        "city": "Seattle",
        "state": "Washington",
        "zipcode": "98104",
        "phone_number": "206-265-4173",
        "rating": 3
    },
    {
        "restaurant_name": "Gabspot",
        "city": "Birmingham",
        "state": "Alabama",
        "zipcode": "35220",
        "phone_number": "205-803-9753",
        "rating": 4
    },
    {
        "restaurant_name": "Ooba",
        "city": "Kansas City",
        "state": "Kansas",
        "zipcode": "66112",
        "phone_number": "913-740-2841",
        "rating": 4
    },
    {
        "restaurant_name": "Dazzlesphere",
        "city": "Cincinnati",
        "state": "Ohio",
        "zipcode": "45999",
        "phone_number": "513-526-2861",
        "rating": 4
    },
    {
        "restaurant_name": "Mita",
        "city": "Van Nuys",
        "state": "California",
        "zipcode": "91411",
        "phone_number": "661-870-9985",
        "rating": 2
    },
    {
        "restaurant_name": "Topicware",
        "city": "Erie",
        "state": "Pennsylvania",
        "zipcode": "16522",
        "phone_number": "814-668-9000",
        "rating": 4
    },
    {
        "restaurant_name": "BlogXS",
        "city": "South Lake Tahoe",
        "state": "California",
        "zipcode": "96154",
        "phone_number": "530-143-3155",
        "rating": 4
    },
    {
        "restaurant_name": "Skajo",
        "city": "New York City",
        "state": "New York",
        "zipcode": "10131",
        "phone_number": "212-942-6203",
        "rating": 1
    },
    {
        "restaurant_name": "Edgeclub",
        "city": "West Palm Beach",
        "state": "Florida",
        "zipcode": "33411",
        "phone_number": "561-756-8908",
        "rating": 1
    },
    {
        "restaurant_name": "Mynte",
        "city": "Denver",
        "state": "Colorado",
        "zipcode": "80249",
        "phone_number": "303-508-1997",
        "rating": 2
    },
    {
        "restaurant_name": "Buzzshare",
        "city": "Fresno",
        "state": "California",
        "zipcode": "93773",
        "phone_number": "559-981-5392",
        "rating": 3
    },
    {
        "restaurant_name": "Rhynyx",
        "city": "Scottsdale",
        "state": "Arizona",
        "zipcode": "85271",
        "phone_number": "480-678-1467",
        "rating": 3
    },
    {
        "restaurant_name": "Edgeblab",
        "city": "Cincinnati",
        "state": "Ohio",
        "zipcode": "45999",
        "phone_number": "513-548-2780",
        "rating": 4
    },
    {
        "restaurant_name": "Fiveclub",
        "city": "Canton",
        "state": "Ohio",
        "zipcode": "44710",
        "phone_number": "330-881-1000",
        "rating": 1
    }
]